[{"OBJECT_NAME":"STARLINK-37108","OBJECT_ID":"2026-053M","EPOCH":"2026-03-30T04:00:01.999584","MEAN_MOTION":15.80823792,"ECCENTRICITY":0.000116,"INCLINATION":97.2844,"RA_OF_ASC_NODE":324.4462,"ARG_OF_PERICENTER":108.3128,"MEAN_ANOMALY":223.9828,"EPHEMERIS_TYPE":0,"CLASSIFICATION_TYPE":"U","NORAD_CAT_ID":68218,"ELEMENT_SET_NO":999,"REV_AT_EPOCH":330,"BSTAR":-0.00013101,"MEAN_MOTION_DOT":-0.00025172,"MEAN_MOTION_DDOT":0},{"OBJECT_NAME":"STARLINK-37106","OBJECT_ID":"2026-053N","EPOCH":"2026-03-30T04:00:01.999584","MEAN_MOTION":15.80884648,"ECCENTRICITY":0.0001214,"INCLINATION":97.2845,"RA_OF_ASC_NODE":324.4485,"ARG_OF_PERICENTER":70.5146,"MEAN_ANOMALY":266.041,"EPHEMERIS_TYPE":0,"CLASSIFICATION_TYPE":"U","NORAD_CAT_ID":68219,"ELEMENT_SET_NO":999,"REV_AT_EPOCH":330,"BSTAR":-0.00026141,"MEAN_MOTION_DOT":-0.00050083,"MEAN_MOTION_DDOT":0},{"OBJECT_NAME":"STARLINK-37030","OBJECT_ID":"2026-053P","EPOCH":"2026-03-30T04:00:01.999584","MEAN_MOTION":15.80766103,"ECCENTRICITY":0.0001295,"INCLINATION":97.2843,"RA_OF_ASC_NODE":324.451,"ARG_OF_PERICENTER":109.2367,"MEAN_ANOMALY":235.8951,"EPHEMERIS_TYPE":0,"CLASSIFICATION_TYPE":"U","NORAD_CAT_ID":68220,"ELEMENT_SET_NO":999,"REV_AT_EPOCH":330,"BSTAR":0.00035924,"MEAN_MOTION_DOT":0.00069058,"MEAN_MOTION_DDOT":0},{"OBJECT_NAME":"STARLINK-37012","OBJECT_ID":"2026-053Q","EPOCH":"2026-03-30T04:00:01.999584","MEAN_MOTION":15.80846847,"ECCENTRICITY":0.0001426,"INCLINATION":97.2843,"RA_OF_ASC_NODE":324.4496,"ARG_OF_PERICENTER":83.3262,"MEAN_ANOMALY":257.4998,"EPHEMERIS_TYPE":0,"CLASSIFICATION_TYPE":"U","NORAD_CAT_ID":68221,"ELEMENT_SET_NO":999,"REV_AT_EPOCH":330,"BSTAR":-0.00026793,"MEAN_MOTION_DOT":-0.00051235,"MEAN_MOTION_DDOT":0},{"OBJECT_NAME":"STARLINK-37110","OBJECT_ID":"2026-053R","EPOCH":"2026-03-30T04:00:01.999584","MEAN_MOTION":15.80858602,"ECCENTRICITY":0.0001293,"INCLINATION":97.2844,"RA_OF_ASC_NODE":324.4531,"ARG_OF_PERICENTER":70.8053,"MEAN_ANOMALY":278.5703,"EPHEMERIS_TYPE":0,"CLASSIFICATION_TYPE":"U","NORAD_CAT_ID":68222,"ELEMENT_SET_NO":999,"REV_AT_EPOCH":330,"BSTAR":-8.9548e-5,"MEAN_MOTION_DOT":-0.00017294,"MEAN_MOTION_DDOT":0},{"OBJECT_NAME":"STARLINK-37025","OBJECT_ID":"2026-053S","EPOCH":"2026-03-30T04:00:01.999584","MEAN_MOTION":15.80797562,"ECCENTRICITY":0.0001192,"INCLINATION":97.2846,"RA_OF_ASC_NODE":324.4536,"ARG_OF_PERICENTER":103.5209,"MEAN_ANOMALY":250.1542,"EPHEMERIS_TYPE":0,"CLASSIFICATION_TYPE":"U","NORAD_CAT_ID":68223,"ELEMENT_SET_NO":999,"REV_AT_EPOCH":330,"BSTAR":1.6531e-5,"MEAN_MOTION_DOT":3.023e-5,"MEAN_MOTION_DDOT":0},{"OBJECT_NAME":"STARLINK-36977","OBJECT_ID":"2026-053T","EPOCH":"2026-03-30T04:00:01.999584","MEAN_MOTION":15.80825353,"ECCENTRICITY":0.0001578,"INCLINATION":97.2846,"RA_OF_ASC_NODE":324.4547,"ARG_OF_PERICENTER":73.6697,"MEAN_ANOMALY":284.2653,"EPHEMERIS_TYPE":0,"CLASSIFICATION_TYPE":"U","NORAD_CAT_ID":68224,"ELEMENT_SET_NO":999,"REV_AT_EPOCH":319,"BSTAR":-0.00013837,"MEAN_MOTION_DOT":-0.00026579,"MEAN_MOTION_DDOT":0},{"OBJECT_NAME":"STARLINK-36960","OBJECT_ID":"2026-053U","EPOCH":"2026-03-30T04:00:01.999584","MEAN_MOTION":15.80806527,"ECCENTRICITY":0.0001429,"INCLINATION":97.2846,"RA_OF_ASC_NODE":324.4576,"ARG_OF_PERICENTER":95.0706,"MEAN_ANOMALY":267.1554,"EPHEMERIS_TYPE":0,"CLASSIFICATION_TYPE":"U","NORAD_CAT_ID":68225,"ELEMENT_SET_NO":999,"REV_AT_EPOCH":328,"BSTAR":-0.00012487,"MEAN_MOTION_DOT":-0.00023985,"MEAN_MOTION_DDOT":0},{"OBJECT_NAME":"STARLINK-37038","OBJECT_ID":"2026-053V","EPOCH":"2026-03-30T04:00:01.999584","MEAN_MOTION":15.80794462,"ECCENTRICITY":0.0001348,"INCLINATION":97.2846,"RA_OF_ASC_NODE":324.4605,"ARG_OF_PERICENTER":79.4748,"MEAN_ANOMALY":291.2873,"EPHEMERIS_TYPE":0,"CLASSIFICATION_TYPE":"U","NORAD_CAT_ID":68226,"ELEMENT_SET_NO":999,"REV_AT_EPOCH":328,"BSTAR":0.00017292,"MEAN_MOTION_DOT":0.00033072,"MEAN_MOTION_DDOT":0},{"OBJECT_NAME":"STARLINK-37083","OBJECT_ID":"2026-053W","EPOCH":"2026-03-30T04:00:01.999584","MEAN_MOTION":15.80909931,"ECCENTRICITY":0.0001519,"INCLINATION":97.2845,"RA_OF_ASC_NODE":324.4595,"ARG_OF_PERICENTER":88.8395,"MEAN_ANOMALY":277.6286,"EPHEMERIS_TYPE":0,"CLASSIFICATION_TYPE":"U","NORAD_CAT_ID":68227,"ELEMENT_SET_NO":999,"REV_AT_EPOCH":330,"BSTAR":-0.0010386,"MEAN_MOTION_DOT":-0.00195547,"MEAN_MOTION_DDOT":0},{"OBJECT_NAME":"STARLINK-37050","OBJECT_ID":"2026-053X","EPOCH":"2026-03-30T04:00:01.999584","MEAN_MOTION":15.8081513,"ECCENTRICITY":0.0001379,"INCLINATION":97.2844,"RA_OF_ASC_NODE":324.4632,"ARG_OF_PERICENTER":74.3094,"MEAN_ANOMALY":300.7243,"EPHEMERIS_TYPE":0,"CLASSIFICATION_TYPE":"U","NORAD_CAT_ID":68228,"ELEMENT_SET_NO":999,"REV_AT_EPOCH":328,"BSTAR":-4.2592e-5,"MEAN_MOTION_DOT":-8.292e-5,"MEAN_MOTION_DDOT":0},{"OBJECT_NAME":"STARLINK-37081","OBJECT_ID":"2026-053Y","EPOCH":"2026-03-30T04:00:01.999584","MEAN_MOTION":15.75547593,"ECCENTRICITY":0.0001673,"INCLINATION":97.2837,"RA_OF_ASC_NODE":324.4655,"ARG_OF_PERICENTER":100.3143,"MEAN_ANOMALY":277.3283,"EPHEMERIS_TYPE":0,"CLASSIFICATION_TYPE":"U","NORAD_CAT_ID":68229,"ELEMENT_SET_NO":999,"REV_AT_EPOCH":330,"BSTAR":-0.0038609,"MEAN_MOTION_DOT":-0.00549058,"MEAN_MOTION_DDOT":0},{"OBJECT_NAME":"STARLINK-37100","OBJECT_ID":"2026-053Z","EPOCH":"2026-03-30T04:00:01.999584","MEAN_MOTION":15.8079728,"ECCENTRICITY":0.0001001,"INCLINATION":97.2851,"RA_OF_ASC_NODE":324.4652,"ARG_OF_PERICENTER":89.5884,"MEAN_ANOMALY":289.7269,"EPHEMERIS_TYPE":0,"CLASSIFICATION_TYPE":"U","NORAD_CAT_ID":68230,"ELEMENT_SET_NO":999,"REV_AT_EPOCH":330,"BSTAR":0.00010773,"MEAN_MOTION_DOT":0.00020524,"MEAN_MOTION_DDOT":0},{"OBJECT_NAME":"STARLINK-37104","OBJECT_ID":"2026-053AA","EPOCH":"2026-03-30T04:00:01.999584","MEAN_MOTION":15.80756735,"ECCENTRICITY":0.000144,"INCLINATION":97.2846,"RA_OF_ASC_NODE":324.4664,"ARG_OF_PERICENTER":108.8853,"MEAN_ANOMALY":274.7143,"EPHEMERIS_TYPE":0,"CLASSIFICATION_TYPE":"U","NORAD_CAT_ID":68231,"ELEMENT_SET_NO":999,"REV_AT_EPOCH":330,"BSTAR":0.00039697,"MEAN_MOTION_DOT":0.00076358,"MEAN_MOTION_DDOT":0},{"OBJECT_NAME":"STARLINK-37027","OBJECT_ID":"2026-054A","EPOCH":"2026-03-30T04:00:01.999584","MEAN_MOTION":15.75168348,"ECCENTRICITY":0.0001015,"INCLINATION":53.1595,"RA_OF_ASC_NODE":210.0813,"ARG_OF_PERICENTER":88.7103,"MEAN_ANOMALY":208.2486,"EPHEMERIS_TYPE":0,"CLASSIFICATION_TYPE":"U","NORAD_CAT_ID":68232,"ELEMENT_SET_NO":999,"REV_AT_EPOCH":320,"BSTAR":0.00077409,"MEAN_MOTION_DOT":0.00119336,"MEAN_MOTION_DDOT":0},{"OBJECT_NAME":"STARLINK-37132","OBJECT_ID":"2026-054B","EPOCH":"2026-03-30T04:11:17.140416","MEAN_MOTION":15.80913551,"ECCENTRICITY":9.12e-5,"INCLINATION":53.1593,"RA_OF_ASC_NODE":210.0041,"ARG_OF_PERICENTER":99.8878,"MEAN_ANOMALY":260.2247,"EPHEMERIS_TYPE":0,"CLASSIFICATION_TYPE":"U","NORAD_CAT_ID":68233,"ELEMENT_SET_NO":999,"REV_AT_EPOCH":201,"BSTAR":0.0010225,"MEAN_MOTION_DOT":0.00206394,"MEAN_MOTION_DDOT":0}]
