STARLINK-37108          
1 68218U 26053M   26089.16668981 -.00025172  00000+0 -13101-3 0  9998
2 68218  97.2844 324.4462 0001160 108.3128 223.9828 15.80823792  3302
STARLINK-37106          
1 68219U 26053N   26089.16668981 -.00050083  00000+0 -26141-3 0  9996
2 68219  97.2845 324.4485 0001214  70.5146 266.0410 15.80884648  3301
STARLINK-37030          
1 68220U 26053P   26089.16668981  .00069058  00000+0  35924-3 0  9997
2 68220  97.2843 324.4510 0001295 109.2367 235.8951 15.80766103  3303
STARLINK-37012          
1 68221U 26053Q   26089.16668981 -.00051235  00000+0 -26793-3 0  9992
2 68221  97.2843 324.4496 0001426  83.3262 257.4998 15.80846847  3304
STARLINK-37110          
1 68222U 26053R   26089.16668981 -.00017294  00000+0 -89548-4 0  9998
2 68222  97.2844 324.4531 0001293  70.8053 278.5703 15.80858602  3307
STARLINK-37025          
1 68223U 26053S   26089.16668981  .00003023  00000+0  16531-4 0  9994
2 68223  97.2846 324.4536 0001192 103.5209 250.1542 15.80797562  3304
STARLINK-36977          
1 68224U 26053T   26089.16668981 -.00026579  00000+0 -13837-3 0  9993
2 68224  97.2846 324.4547 0001578  73.6697 284.2653 15.80825353  3191
STARLINK-36960          
1 68225U 26053U   26089.16668981 -.00023985  00000+0 -12487-3 0  9992
2 68225  97.2846 324.4576 0001429  95.0706 267.1554 15.80806527  3280
STARLINK-37038          
1 68226U 26053V   26089.16668981  .00033072  00000+0  17292-3 0  9998
2 68226  97.2846 324.4605 0001348  79.4748 291.2873 15.80794462  3282
STARLINK-37083          
1 68227U 26053W   26089.16668981 -.00195547  00000+0 -10386-2 0  9993
2 68227  97.2845 324.4595 0001519  88.8395 277.6286 15.80909931  3300
STARLINK-37050          
1 68228U 26053X   26089.16668981 -.00008292  00000+0 -42592-4 0  9990
2 68228  97.2844 324.4632 0001379  74.3094 300.7243 15.80815130  3287
STARLINK-37081          
1 68229U 26053Y   26089.16668981 -.00549058  00000+0 -38609-2 0  9993
2 68229  97.2837 324.4655 0001673 100.3143 277.3283 15.75547593  3302
STARLINK-37100          
1 68230U 26053Z   26089.16668981  .00020524  00000+0  10773-3 0  9998
2 68230  97.2851 324.4652 0001001  89.5884 289.7269 15.80797280  3309
STARLINK-37104          
1 68231U 26053AA  26089.16668981  .00076358  00000+0  39697-3 0  9991
2 68231  97.2846 324.4664 0001440 108.8853 274.7143 15.80756735  3300
STARLINK-37027          
1 68232U 26054A   26089.16668981  .00119336  00000+0  77409-3 0  9990
2 68232  53.1595 210.0813 0001015  88.7103 208.2486 15.75168348  3203
STARLINK-37132          
1 68233U 26054B   26089.17450394  .00206394  00000+0  10225-2 0  9992
2 68233  53.1593 210.0041 0000912  99.8878 260.2247 15.80913551  2013
